[{"OBJECT_NAME":"FIREFLY-1","OBJECT_ID":"2025-009CW","EPOCH":"2026-03-09T21:21:29.738592","MEAN_MOTION":14.92823821,"ECCENTRICITY":0.00023582,"INCLINATION":97.7113,"RA_OF_ASC_NODE":149.053,"ARG_OF_PERICENTER":306.2718,"MEAN_ANOMALY":53.8283,"EPHEMERIS_TYPE":0,"CLASSIFICATION_TYPE":"U","NORAD_CAT_ID":62701,"ELEMENT_SET_NO":999,"REV_AT_EPOCH":6250,"BSTAR":0.00024367887,"MEAN_MOTION_DOT":2.466e-5,"MEAN_MOTION_DDOT":0},{"OBJECT_NAME":"BUCCANEER MM","OBJECT_ID":"2025-052AM","EPOCH":"2026-03-09T22:25:46.269120","MEAN_MOTION":14.94080951,"ECCENTRICITY":0.00039773,"INCLINATION":97.6989,"RA_OF_ASC_NODE":321.9491,"ARG_OF_PERICENTER":161.9633,"MEAN_ANOMALY":198.1729,"EPHEMERIS_TYPE":0,"CLASSIFICATION_TYPE":"U","NORAD_CAT_ID":63245,"ELEMENT_SET_NO":999,"REV_AT_EPOCH":5377,"BSTAR":0.0003752761,"MEAN_MOTION_DOT":3.953e-5,"MEAN_MOTION_DDOT":0}]
